$$SOE
2461288.500000000, A.D. 2026-Sep-05 00:00:00.0000, -3.163521142717769E+08, -2.205111389465009E+08, 8.109279316569284E+06,
2461295.500000000, A.D. 2026-Sep-12 00:00:00.0000, -3.107798658638539E+08, -2.301317149835877E+08, 1.008705747566187E+07,
2461302.500000000, A.D. 2026-Sep-19 00:00:00.0000, -3.049469994989860E+08, -2.395593226214992E+08, 1.205637960578148E+07,
2461309.500000000, A.D. 2026-Sep-26 00:00:00.0000, -2.988606468857954E+08, -2.487878181474635E+08, 1.401568287315401E+07,
2461316.500000000, A.D. 2026-Oct-03 00:00:00.0000, -2.925280369265873E+08, -2.578113393991376E+08, 1.596344038880116E+07,
2461323.500000000, A.D. 2026-Oct-10 00:00:00.0000, -2.859564845186846E+08, -2.666243025196585E+08, 1.789816167064518E+07,
2461330.500000000, A.D. 2026-Oct-17 00:00:00.0000, -2.791533798781039E+08, -2.752213984290855E+08, 1.981839300475387E+07,
2461337.500000000, A.D. 2026-Oct-24 00:00:00.0000, -2.721261783623347E+08, -2.835975890737488E+08, 2.172271770797397E+07,
2461344.500000000, A.D. 2026-Oct-31 00:00:00.0000, -2.648823906915815E+08, -2.917481035570812E+08, 2.360975628368400E+07,
2461351.500000000, A.D. 2026-Nov-07 00:00:00.0000, -2.574295732252346E+08, -2.996684341130220E+08, 2.547816645174162E+07,
2461358.500000000, A.D. 2026-Nov-14 00:00:00.0000, -2.497753180865372E+08, -3.073543310676952E+08, 2.732664311270967E+07,
2461365.500000000, A.D. 2026-Nov-21 00:00:00.0000, -2.419272449387282E+08, -3.148017961382258E+08, 2.915391847395869E+07,
2461372.500000000, A.D. 2026-Nov-28 00:00:00.0000, -2.338929954003218E+08, -3.220070771064750E+08, 3.095876218875372E+07,
2461379.500000000, A.D. 2026-Dec-05 00:00:00.0000, -2.256802264698569E+08, -3.289666645539401E+08, 3.273998112824886E+07,
2461386.500000000, A.D. 2026-Dec-12 00:00:00.0000, -2.172966027853389E+08, -3.356772875742366E+08, 3.449641903122179E+07,
2461393.500000000, A.D. 2026-Dec-19 00:00:00.0000, -2.087497895940315E+08, -3.421359084802632E+08, 3.622695621051913E+07,
2461400.500000000, A.D. 2026-Dec-26 00:00:00.0000, -2.000474465615440E+08, -3.483397173951876E+08, 3.793050926309071E+07,
2461407.500000000, A.D. 2027-Jan-02 00:00:00.0000, -1.911972221298424E+08, -3.542861269382553E+08, 3.960603074696250E+07,
2461414.500000000, A.D. 2027-Jan-09 00:00:00.0000, -1.822067482927312E+08, -3.599727670050820E+08, 4.125250882013725E+07,
2461421.500000000, A.D. 2027-Jan-16 00:00:00.0000, -1.730836357399311E+08, -3.653974796526744E+08, 4.286896684302963E+07,
2461428.500000000, A.D. 2027-Jan-23 00:00:00.0000, -1.638354693109429E+08, -3.705583141460743E+08, 4.445446294103023E+07,
2461435.500000000, A.D. 2027-Jan-30 00:00:00.0000, -1.544698035581248E+08, -3.754535222297316E+08, 4.600808950983959E+07,
2461442.500000000, A.D. 2027-Feb-06 00:00:00.0000, -1.449941579812144E+08, -3.800815532973747E+08, 4.752897265586673E+07,
2461449.500000000, A.D. 2027-Feb-13 00:00:00.0000, -1.354160123805087E+08, -3.844410482528926E+08, 4.901627171676768E+07,
2461456.500000000, A.D. 2027-Feb-20 00:00:00.0000, -1.257428046789902E+08, -3.885308328634681E+08, 5.046917901703066E+07,
2461463.500000000, A.D. 2027-Feb-27 00:00:00.0000, -1.159819298034647E+08, -3.923499138282822E+08, 5.188691947048101E+07,
2461470.500000000, A.D. 2027-Mar-06 00:00:00.0000, -1.061407365937343E+08, -3.958974756497937E+08, 5.326874991276695E+07,
2461477.500000000, A.D. 2027-Mar-13 00:00:00.0000, -9.622652432794981E+07, -3.991728762647452E+08, 5.461395848044465E+07,
2461484.500000000, A.D. 2027-Mar-20 00:00:00.0000, -8.624653998022835E+07, -4.021756422727494E+08, 5.592186407339464E+07,
2461491.500000000, A.D. 2027-Mar-27 00:00:00.0000, -7.620797599331728E+07, -4.049054643136249E+08, 5.719181583784765E+07,
2461498.500000000, A.D. 2027-Apr-03 00:00:00.0000, -6.611796834712809E+07, -4.073621926447903E+08, 5.842319264821924E+07,
2461505.500000000, A.D. 2027-Apr-10 00:00:00.0000, -5.598359484627184E+07, -4.095458329015442E+08, 5.961540258548181E+07,
2461512.500000000, A.D. 2027-Apr-17 00:00:00.0000, -4.581187359117676E+07, -4.114565420617018E+08, 6.076788241124023E+07,
2461519.500000000, A.D. 2027-Apr-24 00:00:00.0000, -3.560976154267936E+07, -4.130946246829203E+08, 6.188009702784730E+07,
2461526.500000000, A.D. 2027-May-01 00:00:00.0000, -2.538415287075905E+07, -4.144605293887023E+08, 6.295153890162991E+07,
2461533.500000000, A.D. 2027-May-08 00:00:00.0000, -1.514187677037345E+07, -4.155548448563333E+08, 6.398172748382606E+07,
2461540.500000000, A.D. 2027-May-15 00:00:00.0000, -4.889696231359949E+06, -4.163782943532478E+08, 6.497020884543937E+07,
2461547.500000000, A.D. 2027-May-22 00:00:00.0000, 5.365690684312485E+06, -4.169317314119900E+08, 6.591655545806384E+07,
2461554.500000000, A.D. 2027-May-29 00:00:00.0000, 1.561765042505493E+07, -4.172161381114300E+08, 6.682036569344291E+07,
2461561.500000000, A.D. 2027-Jun-05 00:00:00.0000, 2.585961528699650E+07, -4.172326228334409E+08, 6.768126321770348E+07,
2461568.500000000, A.D. 2027-Jun-12 00:00:00.0000, 3.608508450742477E+07, -4.169824170635115E+08, 6.849889650077963E+07,
2461575.500000000, A.D. 2027-Jun-19 00:00:00.0000, 4.628762479149663E+07, -4.164668721692688E+08, 6.927293839569229E+07,
2461582.500000000, A.D. 2027-Jun-26 00:00:00.0000, 5.646087055949683E+07, -4.156874564163399E+08, 7.000308574109355E+07,
2461589.500000000, A.D. 2027-Jul-03 00:00:00.0000, 6.659852405453834E+07, -4.146457522106211E+08, 7.068905897570889E+07,
2461596.500000000, A.D. 2027-Jul-10 00:00:00.0000, 7.669435535571226E+07, -4.133434535551525E+08, 7.133060176188499E+07,
2461603.500000000, A.D. 2027-Jul-17 00:00:00.0000, 8.674220234183092E+07, -4.117823637578182E+08, 7.192748061183380E+07,
2461610.500000000, A.D. 2027-Jul-24 00:00:00.0000, 9.673597077102023E+07, -4.099643934511913E+08, 7.247948449777916E+07,
2461617.500000000, A.D. 2027-Jul-31 00:00:00.0000, 1.066696348955945E+08, -4.078915586885144E+08, 7.298642442868894E+07,
2461624.500000000, A.D. 2027-Aug-07 00:00:00.0000, 1.165372384182313E+08, -4.055659779637330E+08, 7.344813310730465E+07,
2461631.500000000, A.D. 2027-Aug-14 00:00:00.0000, 1.263328934939146E+08, -4.029898684074284E+08, 7.386446485843976E+07,
2461638.500000000, A.D. 2027-Aug-21 00:00:00.0000, 1.360507784014054E+08, -4.001655445197755E+08, 7.423529549680693E+07,
2461645.500000000, A.D. 2027-Aug-28 00:00:00.0000, 1.456851373216436E+08, -3.970954182348332E+08, 7.456052191806722E+07,
2461652.500000000, A.D. 2027-Sep-04 00:00:00.0000, 1.552302810478664E+08, -3.937819978125322E+08, 7.484006172631253E+07,
2461659.500000000, A.D. 2027-Sep-11 00:00:00.0000, 1.646805872372507E+08, -3.902278862178426E+08, 7.507385297202224E+07,
2461666.500000000, A.D. 2027-Sep-18 00:00:00.0000, 1.740305003421696E+08, -3.864357796347206E+08, 7.526185393495500E+07,
2461673.500000000, A.D. 2027-Sep-25 00:00:00.0000, 1.832745314547484E+08, -3.824084661895683E+08, 7.540404292434384E+07,
2461680.500000000, A.D. 2027-Oct-02 00:00:00.0000, 1.924072581444001E+08, -3.781488248534964E+08, 7.550041809136055E+07,
2461687.500000000, A.D. 2027-Oct-09 00:00:00.0000, 2.014233243153849E+08, -3.736598245243388E+08, 7.555099725085989E+07,
2461694.500000000, A.D. 2027-Oct-16 00:00:00.0000, 2.103174401525845E+08, -3.689445233395233E+08, 7.555581770158979E+07,
2461701.500000000, A.D. 2027-Oct-23 00:00:00.0000, 2.190843824210427E+08, -3.640060682223315E+08, 7.551493602049877E+07,
2461708.500000000, A.D. 2027-Oct-30 00:00:00.0000, 2.277189954996197E+08, -3.588476940493920E+08, 7.542842784720685E+07,
2461715.500000000, A.D. 2027-Nov-06 00:00:00.0000, 2.362161919897211E+08, -3.534727213102283E+08, 7.529638785819885E+07,
2461722.500000000, A.D. 2027-Nov-13 00:00:00.0000, 2.445709509162453E+08, -3.478845543328967E+08, 7.511892994301435E+07,
2461729.500000000, A.D. 2027-Nov-20 00:00:00.0000, 2.527783164247648E+08, -3.420866822574166E+08, 7.489618713669360E+07,
2461736.500000000, A.D. 2027-Nov-27 00:00:00.0000, 2.608333985954782E+08, -3.360826797883316E+08, 7.462831140154761E+07,
2461743.500000000, A.D. 2027-Dec-04 00:00:00.0000, 2.687313743535379E+08, -3.298762068084576E+08, 7.431547351775488E+07,
2461750.500000000, A.D. 2027-Dec-11 00:00:00.0000, 2.764674879289346E+08, -3.234710078130839E+08, 7.395786305365667E+07,
2461757.500000000, A.D. 2027-Dec-18 00:00:00.0000, 2.840370511460512E+08, -3.168709114993406E+08, 7.355568836253721E+07,
2461764.500000000, A.D. 2027-Dec-25 00:00:00.0000, 2.914354437007567E+08, -3.100798305100381E+08, 7.310917659234476E+07,
2461771.500000000, A.D. 2028-Jan-01 00:00:00.0000, 2.986581134716669E+08, -3.031017613159485E+08, 7.261857370672157E+07,
$$EOE